CCSDS_OMM_VERS = 2.0
CREATION_DATE  = 
ORIGINATOR     = 

OBJECT_NAME    = STARLINK-36040
OBJECT_ID      = 2025-270AC
CENTER_NAME    = EARTH
REF_FRAME      = TEME
TIME_SYSTEM    = UTC
MEAN_ELEMENT_THEORY = SGP/SGP4

EPOCH          = 2025-12-27T08:28:17.896224
MEAN_MOTION    = 15.40708654
ECCENTRICITY   = .0001494
INCLINATION    = 43.0001
RA_OF_ASC_NODE = 108.0932
ARG_OF_PERICENTER = 275.8958
MEAN_ANOMALY   = 84.1728

EPHEMERIS_TYPE = 0
CLASSIFICATION_TYPE = U
NORAD_CAT_ID   = 66614
ELEMENT_SET_NO = 999
REV_AT_EPOCH   = 644
BSTAR          = .11751E-2
MEAN_MOTION_DOT = .49115E-3
MEAN_MOTION_DDOT = 0

CCSDS_OMM_VERS = 2.0
CREATION_DATE  = 
ORIGINATOR     = 

OBJECT_NAME    = STARLINK-35988
OBJECT_ID      = 2025-270AD
CENTER_NAME    = EARTH
REF_FRAME      = TEME
TIME_SYSTEM    = UTC
MEAN_ELEMENT_THEORY = SGP/SGP4

EPOCH          = 2025-12-25T16:20:27.897216
MEAN_MOTION    = 15.40700329
ECCENTRICITY   = .00016951
INCLINATION    = 43.0013
RA_OF_ASC_NODE = 117.9088
ARG_OF_PERICENTER = 260.6340
MEAN_ANOMALY   = 99.4325

EPHEMERIS_TYPE = 0
CLASSIFICATION_TYPE = U
NORAD_CAT_ID   = 66615
ELEMENT_SET_NO = 999
REV_AT_EPOCH   = 618
BSTAR          = .10609961E-2
MEAN_MOTION_DOT = .44275E-3
MEAN_MOTION_DDOT = 0

CCSDS_OMM_VERS = 2.0
CREATION_DATE  = 
ORIGINATOR     = 

OBJECT_NAME    = STARLINK-35391
OBJECT_ID      = 2025-270AE
CENTER_NAME    = EARTH
REF_FRAME      = TEME
TIME_SYSTEM    = UTC
MEAN_ELEMENT_THEORY = SGP/SGP4

EPOCH          = 2025-12-27T08:21:50.538240
MEAN_MOTION    = 15.40725234
ECCENTRICITY   = .0001586
INCLINATION    = 43.0011
RA_OF_ASC_NODE = 108.0614
ARG_OF_PERICENTER = 259.2890
MEAN_ANOMALY   = 100.7788

EPHEMERIS_TYPE = 0
CLASSIFICATION_TYPE = U
NORAD_CAT_ID   = 66616
ELEMENT_SET_NO = 999
REV_AT_EPOCH   = 671
BSTAR          = .11931E-2
MEAN_MOTION_DOT = .49906E-3
MEAN_MOTION_DDOT = 0

CCSDS_OMM_VERS = 2.0
CREATION_DATE  = 
ORIGINATOR     = 

OBJECT_NAME    = STARLINK-35940
OBJECT_ID      = 2025-271A
CENTER_NAME    = EARTH
REF_FRAME      = TEME
TIME_SYSTEM    = UTC
MEAN_ELEMENT_THEORY = SGP/SGP4

EPOCH          = 2025-12-27T12:15:19.380672
MEAN_MOTION    = 15.39642326
ECCENTRICITY   = .0001233
INCLINATION    = 53.1609
RA_OF_ASC_NODE = 117.4857
ARG_OF_PERICENTER = 91.3034
MEAN_ANOMALY   = 268.8112

EPHEMERIS_TYPE = 0
CLASSIFICATION_TYPE = U
NORAD_CAT_ID   = 66617
ELEMENT_SET_NO = 999
REV_AT_EPOCH   = 648
BSTAR          = .1247E-2
MEAN_MOTION_DOT = .49842E-3
MEAN_MOTION_DDOT = 0

CCSDS_OMM_VERS = 2.0
CREATION_DATE  = 
ORIGINATOR     = 

OBJECT_NAME    = STARLINK-35970
OBJECT_ID      = 2025-271B
CENTER_NAME    = EARTH
REF_FRAME      = TEME
TIME_SYSTEM    = UTC
MEAN_ELEMENT_THEORY = SGP/SGP4

EPOCH          = 2025-12-27T12:00:02.000160
MEAN_MOTION    = 15.39608561
ECCENTRICITY   = .0000844
INCLINATION    = 53.1599
RA_OF_ASC_NODE = 116.8599
ARG_OF_PERICENTER = 83.4528
MEAN_ANOMALY   = 194.3828

EPHEMERIS_TYPE = 0
CLASSIFICATION_TYPE = U
NORAD_CAT_ID   = 66618
ELEMENT_SET_NO = 999
REV_AT_EPOCH   = 607
BSTAR          = .21493E-3
MEAN_MOTION_DOT = .8204E-4
MEAN_MOTION_DDOT = 0

CCSDS_OMM_VERS = 2.0
CREATION_DATE  = 
ORIGINATOR     = 

OBJECT_NAME    = STARLINK-35951
OBJECT_ID      = 2025-271C
CENTER_NAME    = EARTH
REF_FRAME      = TEME
TIME_SYSTEM    = UTC
MEAN_ELEMENT_THEORY = SGP/SGP4

EPOCH          = 2025-12-27T11:15:08.184672
MEAN_MOTION    = 15.39623021
ECCENTRICITY   = .0002569
INCLINATION    = 53.1605
RA_OF_ASC_NODE = 117.2210
ARG_OF_PERICENTER = 131.3388
MEAN_ANOMALY   = 228.7839

EPHEMERIS_TYPE = 0
CLASSIFICATION_TYPE = U
NORAD_CAT_ID   = 66619
ELEMENT_SET_NO = 999
REV_AT_EPOCH   = 648
BSTAR          = .11537E-2
MEAN_MOTION_DOT = .46035E-3
MEAN_MOTION_DDOT = 0

CCSDS_OMM_VERS = 2.0
CREATION_DATE  = 
ORIGINATOR     = 

OBJECT_NAME    = STARLINK-35936
OBJECT_ID      = 2025-271D
CENTER_NAME    = EARTH
REF_FRAME      = TEME
TIME_SYSTEM    = UTC
MEAN_ELEMENT_THEORY = SGP/SGP4

EPOCH          = 2025-12-27T11:28:30.844128
MEAN_MOTION    = 15.39666570
ECCENTRICITY   = .0001314
INCLINATION    = 53.1584
RA_OF_ASC_NODE = 117.2799
ARG_OF_PERICENTER = 67.8464
MEAN_ANOMALY   = 292.2680

EPHEMERIS_TYPE = 0
CLASSIFICATION_TYPE = U
NORAD_CAT_ID   = 66620
ELEMENT_SET_NO = 999
REV_AT_EPOCH   = 648
BSTAR          = .1277E-2
MEAN_MOTION_DOT = .51102E-3
MEAN_MOTION_DDOT = 0

CCSDS_OMM_VERS = 2.0
CREATION_DATE  = 
ORIGINATOR     = 

OBJECT_NAME    = STARLINK-35847
OBJECT_ID      = 2025-271E
CENTER_NAME    = EARTH
REF_FRAME      = TEME
TIME_SYSTEM    = UTC
MEAN_ELEMENT_THEORY = SGP/SGP4

EPOCH          = 2025-12-27T12:00:02.000160
MEAN_MOTION    = 15.39608104
ECCENTRICITY   = .0001449
INCLINATION    = 53.1595
RA_OF_ASC_NODE = 116.8080
ARG_OF_PERICENTER = 66.2094
MEAN_ANOMALY   = 237.3881

EPHEMERIS_TYPE = 0
CLASSIFICATION_TYPE = U
NORAD_CAT_ID   = 66621
ELEMENT_SET_NO = 999
REV_AT_EPOCH   = 607
BSTAR          = .25769E-3
MEAN_MOTION_DOT = .9917E-4
MEAN_MOTION_DDOT = 0

CCSDS_OMM_VERS = 2.0
CREATION_DATE  = 
ORIGINATOR     = 

OBJECT_NAME    = STARLINK-35950
OBJECT_ID      = 2025-271F
CENTER_NAME    = EARTH
REF_FRAME      = TEME
TIME_SYSTEM    = UTC
MEAN_ELEMENT_THEORY = SGP/SGP4

EPOCH          = 2025-12-27T11:48:34.225056
MEAN_MOTION    = 15.39690645
ECCENTRICITY   = .0000788
INCLINATION    = 53.1595
RA_OF_ASC_NODE = 117.3679
ARG_OF_PERICENTER = 101.9624
MEAN_ANOMALY   = 258.1470

EPHEMERIS_TYPE = 0
CLASSIFICATION_TYPE = U
NORAD_CAT_ID   = 66622
ELEMENT_SET_NO = 999
REV_AT_EPOCH   = 648
BSTAR          = .10548E-2
MEAN_MOTION_DOT = .42122E-3
MEAN_MOTION_DDOT = 0

CCSDS_OMM_VERS = 2.0
CREATION_DATE  = 
ORIGINATOR     = 

OBJECT_NAME    = STARLINK-35920
OBJECT_ID      = 2025-271G
CENTER_NAME    = EARTH
REF_FRAME      = TEME
TIME_SYSTEM    = UTC
MEAN_ELEMENT_THEORY = SGP/SGP4

EPOCH          = 2025-12-27T12:01:56.510400
MEAN_MOTION    = 15.39677909
ECCENTRICITY   = .0001898
INCLINATION    = 53.1604
RA_OF_ASC_NODE = 117.4252
ARG_OF_PERICENTER = 143.5961
MEAN_ANOMALY   = 216.5173

EPHEMERIS_TYPE = 0
CLASSIFICATION_TYPE = U
NORAD_CAT_ID   = 66623
ELEMENT_SET_NO = 999
REV_AT_EPOCH   = 648
BSTAR          = .15117E-2
MEAN_MOTION_DOT = .60668E-3
MEAN_MOTION_DDOT = 0

CCSDS_OMM_VERS = 2.0
CREATION_DATE  = 
ORIGINATOR     = 

OBJECT_NAME    = STARLINK-35927
OBJECT_ID      = 2025-271H
CENTER_NAME    = EARTH
REF_FRAME      = TEME
TIME_SYSTEM    = UTC
MEAN_ELEMENT_THEORY = SGP/SGP4

EPOCH          = 2025-12-27T08:01:29.859168
MEAN_MOTION    = 15.39652071
ECCENTRICITY   = .0000798
INCLINATION    = 53.1605
RA_OF_ASC_NODE = 117.8035
ARG_OF_PERICENTER = 348.0144
MEAN_ANOMALY   = 12.0842

EPHEMERIS_TYPE = 0
CLASSIFICATION_TYPE = U
NORAD_CAT_ID   = 66624
ELEMENT_SET_NO = 999
REV_AT_EPOCH   = 646
BSTAR          = .14434E-2
MEAN_MOTION_DOT = .57834E-3
MEAN_MOTION_DDOT = 0

CCSDS_OMM_VERS = 2.0
CREATION_DATE  = 
ORIGINATOR     = 

OBJECT_NAME    = STARLINK-35929
OBJECT_ID      = 2025-271J
CENTER_NAME    = EARTH
REF_FRAME      = TEME
TIME_SYSTEM    = UTC
MEAN_ELEMENT_THEORY = SGP/SGP4

EPOCH          = 2025-12-27T11:35:11.912064
MEAN_MOTION    = 15.39644985
ECCENTRICITY   = .000096
INCLINATION    = 53.1601
RA_OF_ASC_NODE = 117.3075
ARG_OF_PERICENTER = 86.4918
MEAN_ANOMALY   = 273.6196

EPHEMERIS_TYPE = 0
CLASSIFICATION_TYPE = U
NORAD_CAT_ID   = 66625
ELEMENT_SET_NO = 999
REV_AT_EPOCH   = 648
BSTAR          = .13567E-2
MEAN_MOTION_DOT = .543E-3
MEAN_MOTION_DDOT = 0

