STARLINK-36040          
1 66614U 25270AC  25361.35298491  .00049115  00000+0  11751-2 0  9993
2 66614  43.0001 108.0932 0001494 275.8958  84.1728 15.40708654  6442
STARLINK-35988          
1 66615U 25270AD  25359.68087844  .00044275  00000+0  10610-2 0  9990
2 66615  43.0013 117.9088 0001695 260.6340  99.4325 15.40700329  6181
STARLINK-35391          
1 66616U 25270AE  25361.34850160  .00049906  00000+0  11931-2 0  9999
2 66616  43.0011 108.0614 0001586 259.2890 100.7788 15.40725234  6719
STARLINK-35940          
1 66617U 25271A   25361.51064098  .00049842  00000+0  12470-2 0  9995
2 66617  53.1609 117.4857 0001233  91.3034 268.8112 15.39642326  6481
STARLINK-35970          
1 66618U 25271B   25361.50002315  .00008204  00000+0  21493-3 0  9992
2 66618  53.1599 116.8599 0000844  83.4528 194.3828 15.39608561  6078
STARLINK-35951          
1 66619U 25271C   25361.46884473  .00046035  00000+0  11537-2 0  9992
2 66619  53.1605 117.2210 0002569 131.3388 228.7839 15.39623021  6482
STARLINK-35936          
1 66620U 25271D   25361.47813477  .00051102  00000+0  12770-2 0  9992
2 66620  53.1584 117.2799 0001314  67.8464 292.2680 15.39666570  6483
STARLINK-35847          
1 66621U 25271E   25361.50002315  .00009917  00000+0  25769-3 0  9998
2 66621  53.1595 116.8080 0001449  66.2094 237.3881 15.39608104  6072
STARLINK-35950          
1 66622U 25271F   25361.49206279  .00042122  00000+0  10548-2 0  9995
2 66622  53.1595 117.3679 0000788 101.9624 258.1470 15.39690645  6485
STARLINK-35920          
1 66623U 25271G   25361.50134850  .00060668  00000+0  15117-2 0  9995
2 66623  53.1604 117.4252 0001898 143.5961 216.5173 15.39677909  6480
STARLINK-35927          
1 66624U 25271H   25361.33437337  .00057834  00000+0  14434-2 0  9995
2 66624  53.1605 117.8035 0000798 348.0144  12.0842 15.39652071  6461
STARLINK-35929          
1 66625U 25271J   25361.48277676  .00054300  00000+0  13567-2 0  9991
2 66625  53.1601 117.3075 0000960  86.4918 273.6196 15.39644985  6484
